STARLINK-30457          
1 57900U 23146K   26068.05527824 -.00000476  00000+0 -20150-4 0  9992
2 57900  43.0042 316.5550 0001262 271.3954  88.6744 15.02534066135911
QPS-SAR-11 (YAMATSUMI-I)
1 64340U 25125A   26068.25519236  .00007204  00000+0  57385-3 0  9990
2 64340  42.0098  22.3823 0010044 210.0400 149.9850 15.00627459 40603
